{"type": "FeatureCollection", "features": [ {"type": "Feature", "properties": {"norad_id": 33825, "name": "COSMOS 2251 DEB", "group": "cosmos-2251-debris", "lat": -20.116064173119, "lon": -167.06208389162086, "alt_km": 705.0170004928914, "timestamp": "2025-12-23T11:34:48.553401+00:00", "meta": {"OBJECT_NAME": "COSMOS 2251 DEB", "OBJECT_ID": "1993-036BS", "EPOCH": "2025-12-23T01:10:10.079328", "MEAN_MOTION": 14.69855178, "ECCENTRICITY": 0.0085039, "INCLINATION": 73.9845, "RA_OF_ASC_NODE": 7.7423, "ARG_OF_PERICENTER": 332.3807, "MEAN_ANOMALY": 94.8305, "EPHEMERIS_TYPE": 0, "CLASSIFICATION_TYPE": "U", "NORAD_CAT_ID": 33825, "ELEMENT_SET_NO": 999, "REV_AT_EPOCH": 89031, "BSTAR": 0.00097655, "MEAN_MOTION_DOT": 6.142e-05, "MEAN_MOTION_DDOT": 0}, "tle": {"line1": "1 33825U 93036BS  25357.04872777  .00006142  00000+0  97655-3 0  9993", "line2": "2 33825  73.9845   7.7423 0085039 332.3807  94.8305 14.69855178890317"}}, "geometry": {"type": "Point", "coordinates": [-167.06208389162086, -20.116064173119]}}, {"type": "Feature", "properties": {"norad_id": 33826, "name": "COSMOS 2251 DEB", "group": "cosmos-2251-debris", "lat": 61.39047483130094, "lon": 178.08789459563982, "alt_km": 670.8778780181592, "timestamp": "2025-12-23T11:34:48.553411+00:00", "meta": {"OBJECT_NAME": "COSMOS 2251 DEB", "OBJECT_ID": "1993-036BT", "EPOCH": "2025-12-23T03:04:06.594240", "MEAN_MOTION": 14.51766795, "ECCENTRICITY": 0.0082533, "INCLINATION": 74.0639, "RA_OF_ASC_NODE": 30.3454, "ARG_OF_PERICENTER": 71.2141, "MEAN_ANOMALY": 349.3817, "EPHEMERIS_TYPE": 0, "CLASSIFICATION_TYPE": "U", "NORAD_CAT_ID": 33826, "ELEMENT_SET_NO": 999, "REV_AT_EPOCH": 87920, "BSTAR": 0.00047512, "MEAN_MOTION_DOT": 1.968e-05, "MEAN_MOTION_DDOT": 0}, "tle": {"line1": "1 33826U 93036BT  25357.12785410  .00001968  00000+0  47512-3 0  9998", "line2": "2 33826  74.0639  30.3454 0082533  71.2141 349.3817 14.51766795879201"}}, "geometry": {"type": "Point", "coordinates": [178.08789459563982, 61.39047483130094]}}, {"type": "Feature", "properties": {"norad_id": 33828, "name": "COSMOS 2251 DEB", "group": "cosmos-2251-debris", "lat": 73.07834290103511, "lon": -71.78174669367887, "alt_km": 755.8065136867035, "timestamp": "2025-12-23T11:34:48.553421+00:00", "meta": {"OBJECT_NAME": "COSMOS 2251 DEB", "OBJECT_ID": "1993-036BV", "EPOCH": "2025-12-23T01:57:47.157120", "MEAN_MOTION": 14.44361361, "ECCENTRICITY": 0.0029526, "INCLINATION": 74.0452, "RA_OF_ASC_NODE": 218.8585, "ARG_OF_PERICENTER": 290.201, "MEAN_ANOMALY": 231.2504, "EPHEMERIS_TYPE": 0, "CLASSIFICATION_TYPE": "U", "NORAD_CAT_ID": 33828, "ELEMENT_SET_NO": 999, "REV_AT_EPOCH": 88462, "BSTAR": 0.00036494, "MEAN_MOTION_DOT": 1.236e-05, "MEAN_MOTION_DDOT": 0}, "tle": {"line1": "1 33828U 93036BV  25357.08179580  .00001236  00000+0  36494-3 0  9995", "line2": "2 33828  74.0452 218.8585 0029526 290.2010 231.2504 14.44361361884621"}}, "geometry": {"type": "Point", "coordinates": [-71.78174669367887, 73.07834290103511]}}, {"type": "Feature", "properties": {"norad_id": 33830, "name": "COSMOS 2251 DEB", "group": "cosmos-2251-debris", "lat": 38.945182863730984, "lon": 15.921046885499337, "alt_km": 665.1843562792192, "timestamp": "2025-12-23T11:34:48.553431+00:00", "meta": {"OBJECT_NAME": "COSMOS 2251 DEB", "OBJECT_ID": "1993-036BX", "EPOCH": "2025-12-23T01:56:27.237120", "MEAN_MOTION": 14.77001817, "ECCENTRICITY": 0.004271, "INCLINATION": 74.0307, "RA_OF_ASC_NODE": 210.0899, "ARG_OF_PERICENTER": 328.0382, "MEAN_ANOMALY": 196.287, "EPHEMERIS_TYPE": 0, "CLASSIFICATION_TYPE": "U", "NORAD_CAT_ID": 33830, "ELEMENT_SET_NO": 999, "REV_AT_EPOCH": 89624, "BSTAR": 0.00077982, "MEAN_MOTION_DOT": 5.55e-05, "MEAN_MOTION_DDOT": 0}, "tle": {"line1": "1 33830U 93036BX  25357.08087080  .00005550  00000+0  77982-3 0  9991", "line2": "2 33830  74.0307 210.0899 0042710 328.0382 196.2870 14.77001817896247"}}, "geometry": {"type": "Point", "coordinates": [15.921046885499337, 38.945182863730984]}}, {"type": "Feature", "properties": {"norad_id": 33832, "name": "COSMOS 2251 DEB", "group": "cosmos-2251-debris", "lat": -70.3574986757737, "lon": 136.2356174556223, "alt_km": 689.8910887573711, "timestamp": "2025-12-23T11:34:48.553440+00:00", "meta": {"OBJECT_NAME": "COSMOS 2251 DEB", "OBJECT_ID": "1993-036BZ", "EPOCH": "2025-12-22T23:19:45.493248", "MEAN_MOTION": 14.607594, "ECCENTRICITY": 0.0024179, "INCLINATION": 74.0523, "RA_OF_ASC_NODE": 190.4496, "ARG_OF_PERICENTER": 219.5401, "MEAN_ANOMALY": 258.6119, "EPHEMERIS_TYPE": 0, "CLASSIFICATION_TYPE": "U", "NORAD_CAT_ID": 33832, "ELEMENT_SET_NO": 999, "REV_AT_EPOCH": 88574, "BSTAR": 0.0014009, "MEAN_MOTION_DOT": 6.841e-05, "MEAN_MOTION_DDOT": 0}, "tle": {"line1": "1 33832U 93036BZ  25356.97205432  .00006841  00000+0  14009-2 0  9997", "line2": "2 33832  74.0523 190.4496 0024179 219.5401 258.6119 14.60759400885740"}}, "geometry": {"type": "Point", "coordinates": [136.2356174556223, -70.3574986757737]}}, {"type": "Feature", "properties": {"norad_id": 33835, "name": "COSMOS 2251 DEB", "group": "cosmos-2251-debris", "lat": 1.133633489342425, "lon": -99.76253392610707, "alt_km": 662.3772904581065, "timestamp": "2025-12-23T11:34:48.553449+00:00", "meta": {"OBJECT_NAME": "COSMOS 2251 DEB", "OBJECT_ID": "1993-036CC", "EPOCH": "2025-12-22T17:25:34.372992", "MEAN_MOTION": 14.62339881, "ECCENTRICITY": 0.00538814, "INCLINATION": 74.0574, "RA_OF_ASC_NODE": 82.0079, "ARG_OF_PERICENTER": 132.6351, "MEAN_ANOMALY": 25.1633, "EPHEMERIS_TYPE": 0, "CLASSIFICATION_TYPE": "U", "NORAD_CAT_ID": 33835, "ELEMENT_SET_NO": 999, "REV_AT_EPOCH": 88935, "BSTAR": 0.00089730778, "MEAN_MOTION_DOT": 4.601e-05, "MEAN_MOTION_DDOT": 0}, "tle": {"line1": "1 33835U 93036CC  25356.72609228  .00004601  00000+0  89731-3 0  9991", "line2": "2 33835  74.0574  82.0079 0053881 132.6351  25.1633 14.62339881889351"}}, "geometry": {"type": "Point", "coordinates": [-99.76253392610707, 1.133633489342425]}}, {"type": "Feature", "properties": {"norad_id": 33836, "name": "COSMOS 2251 DEB", "group": "cosmos-2251-debris", "lat": 23.924331315677875, "lon": 50.43515321217031, "alt_km": 623.1085649431698, "timestamp": "2025-12-23T11:34:48.553458+00:00", "meta": {"OBJECT_NAME": "COSMOS 2251 DEB", "OBJECT_ID": "1993-036CD", "EPOCH": "2025-12-23T03:29:31.689024", "MEAN_MOTION": 14.79785856, "ECCENTRICITY": 0.002279, "INCLINATION": 73.9961, "RA_OF_ASC_NODE": 238.4155, "ARG_OF_PERICENTER": 87.573, "MEAN_ANOMALY": 72.5934, "EPHEMERIS_TYPE": 0, "CLASSIFICATION_TYPE": "U", "NORAD_CAT_ID": 33836, "ELEMENT_SET_NO": 999, "REV_AT_EPOCH": 64242, "BSTAR": 0.001203, "MEAN_MOTION_DOT": 9.073e-05, "MEAN_MOTION_DDOT": 0}, "tle": {"line1": "1 33836U 93036CD  25357.14550566  .00009073  00000+0  12030-2 0  9994", "line2": "2 33836  73.9961 238.4155 0022790  87.5730  72.5934 14.79785856642426"}}, "geometry": {"type": "Point", "coordinates": [50.43515321217031, 23.924331315677875]}}, {"type": "Feature", "properties": {"norad_id": 33837, "name": "COSMOS 2251 DEB", "group": "cosmos-2251-debris", "lat": 73.71103946981349, "lon": 136.51978405163536, "alt_km": 740.1513988632287, "timestamp": "2025-12-23T11:34:48.553468+00:00", "meta": {"OBJECT_NAME": "COSMOS 2251 DEB", "OBJECT_ID": "1993-036CE", "EPOCH": "2025-12-22T11:58:47.745408", "MEAN_MOTION": 14.50720949, "ECCENTRICITY": 0.00358993, "INCLINATION": 74.0124, "RA_OF_ASC_NODE": 37.2238, "ARG_OF_PERICENTER": 257.3918, "MEAN_ANOMALY": 102.3227, "EPHEMERIS_TYPE": 0, "CLASSIFICATION_TYPE": "U", "NORAD_CAT_ID": 33837, "ELEMENT_SET_NO": 999, "REV_AT_EPOCH": 88937, "BSTAR": 0.0002310609, "MEAN_MOTION_DOT": 8.87e-06, "MEAN_MOTION_DDOT": 0}, "tle": {"line1": "1 33837U 93036CE  25356.49916372  .00000887  00000+0  23106-3 0  9994", "line2": "2 33837  74.0124  37.2238 0035899 257.3918 102.3227 14.50720949889371"}}, "geometry": {"type": "Point", "coordinates": [136.51978405163536, 73.71103946981349]}}, {"type": "Feature", "properties": {"norad_id": 33838, "name": "COSMOS 2251 DEB", "group": "cosmos-2251-debris", "lat": -52.41766056076443, "lon": -28.469656761498893, "alt_km": 718.5992790019036, "timestamp": "2025-12-23T11:34:48.553477+00:00", "meta": {"OBJECT_NAME": "COSMOS 2251 DEB", "OBJECT_ID": "1993-036CF", "EPOCH": "2025-12-22T20:07:10.186176", "MEAN_MOTION": 14.48392182, "ECCENTRICITY": 0.00274838, "INCLINATION": 74.0363, "RA_OF_ASC_NODE": 130.9013, "ARG_OF_PERICENTER": 251.399, "MEAN_ANOMALY": 226.5272, "EPHEMERIS_TYPE": 0, "CLASSIFICATION_TYPE": "U", "NORAD_CAT_ID": 33838, "ELEMENT_SET_NO": 999, "REV_AT_EPOCH": 88715, "BSTAR": 0.00036244538, "MEAN_MOTION_DOT": 1.336e-05, "MEAN_MOTION_DDOT": 0}, "tle": {"line1": "1 33838U 93036CF  25356.83831234  .00001336  00000+0  36245-3 0  9994", "line2": "2 33838  74.0363 130.9013 0027483 251.3990 226.5272 14.48392182887157"}}, "geometry": {"type": "Point", "coordinates": [-28.469656761498893, -52.41766056076443]}}, {"type": "Feature", "properties": {"norad_id": 33839, "name": "COSMOS 2251 DEB", "group": "cosmos-2251-debris", "lat": 58.95831178510401, "lon": -145.7651593277601, "alt_km": 709.2677910114026, "timestamp": "2025-12-23T11:34:48.553487+00:00", "meta": {"OBJECT_NAME": "COSMOS 2251 DEB", "OBJECT_ID": "1993-036CG", "EPOCH": "2025-12-22T06:18:05.356800", "MEAN_MOTION": 14.64442712, "ECCENTRICITY": 0.00853344, "INCLINATION": 74.0375, "RA_OF_ASC_NODE": 188.1814, "ARG_OF_PERICENTER": 298.0809, "MEAN_ANOMALY": 175.3247, "EPHEMERIS_TYPE": 0, "CLASSIFICATION_TYPE": "U", "NORAD_CAT_ID": 33839, "ELEMENT_SET_NO": 999, "REV_AT_EPOCH": 89719, "BSTAR": 0.00019432644, "MEAN_MOTION_DOT": 1.05e-05, "MEAN_MOTION_DDOT": 0}, "tle": {"line1": "1 33839U 93036CG  25356.26256200  .00001050  00000+0  19433-3 0  9999", "line2": "2 33839  74.0375 188.1814 0085334 298.0809 175.3247 14.64442712897192"}}, "geometry": {"type": "Point", "coordinates": [-145.7651593277601, 58.95831178510401]}}]}